H1 CPF 01  gfz 2021 01 10 01  5101 tandemx   
H2 1003001  6202 36605    2021 01 10 00 59 42 2021 01 15 00 00 42   120 1 1  0 0 0
H9
10 0 59224   3582.000000  0   -1714404.940  -6671060.659   -163927.423
10 0 59224   3702.000000  0   -1876280.789  -6586694.922    739894.510
10 0 59224   3822.000000  0   -2002850.996  -6384666.584   1630688.961
10 0 59224   3942.000000  0   -2089871.010  -6069134.076   2492766.445
10 0 59224   4062.000000  0   -2133884.909  -5646329.696   3310943.713
10 0 59224   4182.000000  0   -2132321.018  -5124430.852   4070818.229
10 0 59224   4302.000000  0   -2083568.185  -4513394.114   4759025.811
10 0 59224   4422.000000  0   -1987031.604  -3824757.107   5363477.078
10 0 59224   4542.000000  0   -1843166.968  -3071411.223   5873569.596
10 0 59224   4662.000000  0   -1653490.718  -2267351.339   6280369.341
10 0 59224   4782.000000  0   -1420567.418  -1427410.742   6576760.971
10 0 59224   4902.000000  0   -1147975.779   -566983.939   6757566.862
10 0 59224   5022.000000  0    -840254.049    298257.653   6819631.070
10 0 59224   5142.000000  0    -502824.721   1152650.106   6761871.040
10 0 59224   5262.000000  0    -141898.797   1980820.276   6585295.894
10 0 59224   5382.000000  0     235638.434   2767962.264   6292989.721
10 0 59224   5502.000000  0     622357.791   3500102.116   5890060.802
10 0 59224   5622.000000  0    1010430.547   4164348.323   5383557.833
10 0 59224   5742.000000  0    1391784.998   4749123.268   4782352.458
10 0 59224   5862.000000  0    1758272.421   5244371.932   4096989.168
10 0 59224   5982.000000  0    2101839.175   5641741.790   3339505.268
10 0 59224   6102.000000  0    2414702.396   5934733.878   2523222.722
10 0 59224   6222.000000  0    2689522.574   6118818.611   1662510.665
10 0 59224   6342.000000  0    2919571.383   6191510.846    772526.862
10 0 59224   6462.000000  0    3098887.337   6152403.386   -131056.457
10 0 59224   6582.000000  0    3222417.979   6003159.482  -1032336.356
10 0 59224   6702.000000  0    3286144.438   5747463.174  -1915467.411
10 0 59224   6822.000000  0    3287184.839   5390930.034  -2764947.564
10 0 59224   6942.000000  0    3223874.323   4940979.558  -3565896.469
10 0 59224   7062.000000  0    3095818.652   4406672.486  -4304318.662
10 0 59224   7182.000000  0    2903921.609   3798520.011  -4967346.139
10 0 59224   7302.000000  0    2650385.692   3128269.159  -5543457.544
10 0 59224   7422.000000  0    2338687.754   2408669.252  -6022670.116
10 0 59224   7542.000000  0    1973529.029   1653225.039  -6396702.151
10 0 59224   7662.000000  0    1560761.996    875942.206  -6659103.829
10 0 59224   7782.000000  0    1107296.534     91070.363  -6805357.714
10 0 59224   7902.000000  0     620984.246   -687153.683  -6832949.278
10 0 59224   8022.000000  0     110483.933  -1444758.833  -6741403.981
10 0 59224   8142.000000  0    -414888.299  -2168283.043  -6532293.559
10 0 59224   8262.000000  0    -945324.391  -2845006.638  -6209213.696
10 0 59224   8382.000000  0   -1470703.058  -3463173.509  -5777728.762
10 0 59224   8502.000000  0   -1980777.946  -4012194.128  -5245285.525
10 0 59224   8622.000000  0   -2465374.099  -4482830.086  -4621097.140
10 0 59224   8742.000000  0   -2914589.904  -4867356.302  -3915994.952
10 0 59224   8862.000000  0   -3318999.141  -5159695.495  -3142249.599
10 0 59224   8982.000000  0   -3669849.199  -5355523.091  -2313364.813
10 0 59224   9102.000000  0   -3959251.751  -5452339.679  -1443845.521
10 0 59224   9222.000000  0   -4180360.429  -5449508.208   -548943.523
10 0 59224   9342.000000  0   -4327530.251  -5348254.243    355614.408
10 0 59224   9462.000000  0   -4396454.703  -5151628.624   1253910.098
10 0 59224   9582.000000  0   -4384276.697  -4864432.481   2130123.588
10 0 59224   9702.000000  0   -4289669.543  -4493106.052   2968820.933
10 0 59224   9822.000000  0   -4112886.874  -4045585.463   3755233.564
10 0 59224   9942.000000  0   -3855780.309  -3531131.079   4475524.418
10 0 59224  10062.000000  0   -3521783.636  -2960130.723   5117034.519
10 0 59224  10182.000000  0   -3115865.436  -2343884.560   5668504.052
10 0 59224  10302.000000  0   -2644451.762  -1694377.786   6120266.843
10 0 59224  10422.000000  0   -2115320.406  -1024044.313   6464416.137
10 0 59224  10542.000000  0   -1537467.910   -345524.900   6694938.292
10 0 59224  10662.000000  0    -920952.307    328572.374   6807809.664
10 0 59224  10782.000000  0    -276717.963    985904.646   6801061.824
10 0 59224  10902.000000  0     383598.430   1614619.792   6674814.308
10 0 59224  11022.000000  0    1047877.708   2203570.166   6431272.756
10 0 59224  11142.000000  0    1703740.084   2742510.140   6074691.911
10 0 59224  11262.000000  0    2338774.954   3222275.018   5611306.279
10 0 59224  11382.000000  0    2940776.537   3634940.301   5049228.087
10 0 59224  11502.000000  0    3497981.615   3973957.145   4398310.362
10 0 59224  11622.000000  0    3999301.336   4234259.465   3669978.442
10 0 59224  11742.000000  0    4434546.736   4412345.431   2877035.000
10 0 59224  11862.000000  0    4794642.420   4506325.937   2033432.366
10 0 59224  11982.000000  0    5071817.798   4515941.041   1154024.606
10 0 59224  12102.000000  0    5259777.749   4442543.046    254300.185
10 0 59224  12222.000000  0    5353843.350   4289045.957   -649900.179
10 0 59224  12342.000000  0    5351059.204   4059842.740  -1542671.265
10 0 59224  12462.000000  0    5250266.926   3760693.136  -2408330.990
10 0 59224  12582.000000  0    5052142.250   3398584.428  -3231701.963
10 0 59224  12702.000000  0    4759195.204   2981570.572  -3998380.845
10 0 59224  12822.000000  0    4375733.865   2518593.324  -4694991.288
10 0 59224  12942.000000  0    3907792.871   2019288.211  -5309413.724
10 0 59224  13062.000000  0    3363030.060   1493782.694  -5830988.526
10 0 59224  13182.000000  0    2750593.488    952490.956  -6250691.437
10 0 59224  13302.000000  0    2080961.660    405908.920  -6561278.207
10 0 59224  13422.000000  0    1365762.246   -135585.774  -6757397.576
10 0 59224  13542.000000  0     617571.721   -661926.626  -6835675.426
10 0 59224  13662.000000  0    -150303.916  -1163541.318  -6794765.829
10 0 59224  13782.000000  0    -924059.778  -1631520.577  -6635370.350
10 0 59224  13902.000000  0   -1689634.001  -2057772.330  -6360228.403
10 0 59224  14022.000000  0   -2432957.755  -2435159.712  -5974075.158
10 0 59224  14142.000000  0   -3140208.202  -2757619.462  -5483568.448
10 0 59224  14262.000000  0   -3798063.273  -3020260.981  -4897186.371
10 0 59224  14382.000000  0   -4393954.606  -3219443.747  -4225092.110
10 0 59224  14502.000000  0   -4916311.361  -3352829.974  -3478967.927
10 0 59224  14622.000000  0   -5354791.498  -3419412.210  -2671820.665
10 0 59224  14742.000000  0   -5700494.913  -3419514.609  -1817759.852
10 0 59224  14862.000000  0   -5946152.129  -3354766.902   -931752.105
10 0 59224  14982.000000  0   -6086284.245  -3228051.618    -29356.443
10 0 59224  15102.000000  0   -6117329.390  -3043425.101    873554.429
10 0 59224  15222.000000  0   -6037732.018  -2806014.392   1761082.207
10 0 59224  15342.000000  0   -5847989.917  -2521891.235   2617593.137
10 0 59224  15462.000000  0   -5550659.794  -2197927.611   3428000.991
10 0 59224  15582.000000  0   -5150322.417  -1841636.950   4178040.716
10 0 59224  15702.000000  0   -4653504.443  -1461002.995   4854523.984
10 0 59224  15822.000000  0   -4068563.731  -1064303.514   5445570.371
10 0 59224  15942.000000  0   -3405541.503   -659932.765   5940814.065
10 0 59224  16062.000000  0   -2675982.177   -256224.761   6331582.854
10 0 59224  16182.000000  0   -1892724.461    138717.719   6611044.332
10 0 59224  16302.000000  0   -1069670.273    517183.450   6774318.157
10 0 59224  16422.000000  0    -221536.206    872001.512   6818555.916
10 0 59224  16542.000000  0     636409.552   1196676.114   6742987.336
10 0 59224  16662.000000  0    1488621.124   1485505.349   6548932.981
10 0 59224  16782.000000  0    2319555.847   1733681.684   6239782.215
10 0 59224  16902.000000  0    3113957.154   1937372.109   5820938.000
10 0 59224  17022.000000  0    3857136.991   2093777.699   5299728.415
10 0 59224  17142.000000  0    4535250.634   2201171.102   4685283.846
10 0 59224  17262.000000  0    5135559.722   2258912.527   3988384.007
10 0 59224  17382.000000  0    5646681.981   2267442.618   3221273.188
10 0 59224  17502.000000  0    6058815.103   2228250.739   2397443.599
10 0 59224  17622.000000  0    6363932.791   2143822.084   1531397.998
10 0 59224  17742.000000  0    6555949.417   2017562.583    638388.894
10 0 59224  17862.000000  0    6630845.615   1853703.658   -265857.592
10 0 59224  17982.000000  0    6586752.222   1657190.607  -1165428.214
10 0 59224  18102.000000  0    6423990.286   1433555.443  -2044510.228
10 0 59224  18222.000000  0    6145070.109   1188778.276  -2887676.363
10 0 59224  18342.000000  0    5754644.127    929141.211  -3680161.679
10 0 59224  18462.000000  0    5259417.547    661078.886  -4408123.982
10 0 59224  18582.000000  0    4668019.929    391029.147  -5058883.519
10 0 59224  18702.000000  0    3990842.693    125287.455  -5621137.005
10 0 59224  18822.000000  0    3239847.094   -130131.198  -6085144.908
10 0 59224  18942.000000  0    2428345.593   -369620.634  -6442890.330
10 0 59224  19062.000000  0    1570761.912   -588099.949  -6688205.193
10 0 59224  19182.000000  0     682376.180   -781115.989  -6816866.566
10 0 59224  19302.000000  0    -220944.635   -944929.854  -6826661.999
10 0 59224  19422.000000  0   -1123023.887  -1076586.173  -6717422.184
10 0 59224  19542.000000  0   -2007657.863  -1173965.059  -6491024.301
10 0 59224  19662.000000  0   -2858900.710  -1235815.482  -6151362.583
10 0 59224  19782.000000  0   -3661344.996  -1261769.914  -5704288.003
10 0 59224  19902.000000  0   -4400398.450  -1252340.512  -5157519.506
10 0 59224  20022.000000  0   -5062551.814  -1208895.983  -4520521.994
99
